ARIRANG-2 (KOMPSAT-2)   
1 29268U 06031A   25124.17530955  .00000700  00000+0  14120-3 0  9993
2 29268  97.8397 323.3947 0013203 293.5188 204.1381 14.64265919  1713
LAPAN-TUBSAT            
1 29709U 07001A   25124.22081883  .00001180  00000+0  14390-3 0  9990
2 29709  98.1081 110.0833 0013773  78.4061 281.8698 14.85279700990440
HAIYANG-1B              
1 31113U 07010A   25123.88171676  .00000202  00000+0  92722-4 0  9993
2 31113  98.3136 117.5978 0013084 340.4931  19.5751 14.30881208942096
COSMO-SKYMED 1          
1 31598U 07023A   25124.18838894  .00001075  00000+0  12873-3 0  9997
2 31598  97.8877 308.7929 0000136  51.7875 308.3352 14.86161364968743
TERRASAR-X              
1 31698U 07026A   25123.49105489  .00003213  00000+0  15615-3 0  9994
2 31698  97.4458 132.0506 0001883  94.0312 266.1138 15.19148258991024
WORLDVIEW-1 (WV-1)      
1 32060U 07041A   25123.87156565  .00011551  00000+0  47072-3 0  9994
2 32060  97.3881 244.6277 0004151 217.8064 142.2883 15.24614011980572
YAOGAN-3                
1 32289U 07055A   25124.20471835  .00003422  00000+0  37315-3 0  9997
2 32289  97.8558 152.7227 0001448  84.5348 275.6034 14.88610397945038
COSMO-SKYMED 2          
1 32376U 07059A   25124.18232042  .00000912  00000+0  12116-3 0  9993
2 32376  97.8876 308.7202 0001350  87.5272 272.6095 14.82144853941498
RADARSAT-2              
1 32382U 07061A   25124.19806098  .00000142  00000+0  72138-4 0  9998
2 32382  98.5794 131.9642 0001260  89.7550 270.3777 14.29983902907614
CARTOSAT-2A             
1 32783U 08021A   25124.18802951  .00001400  00000+0  19706-3 0  9992
2 32783  97.8180 180.5946 0010871   8.5687 351.5708 14.78804477918447
HUANJING 1A (HJ-1A)     
1 33320U 08041A   25124.23086338  .00002595  00000+0  32771-3 0  9994
2 33320  97.6407 122.1389 0020607  44.8354 315.4521 14.82577490897883
HUANJING 1B (HJ-1B)     
1 33321U 08041B   25124.24997846  .00001909  00000+0  24296-3 0  9992
2 33321  97.6297 126.3582 0038851  85.4298 275.1352 14.82155550897906
GEOEYE 1                
1 33331U 08042A   25123.88845843  .00000995  00000+0  19624-3 0  9995
2 33331  98.1227 198.0234 0002919 260.6652  99.4221 14.64626325890237
THEOS                   
1 33396U 08049A   25124.17399395  .00000123  00000+0  77801-4 0  9997
2 33396  98.6115 188.4381 0001159  87.0566 273.0743 14.20100044859933
