[
  {
    "OBJECT_NAME": "ARIRANG-2 (KOMPSAT-2)",
    "OBJECT_ID": "2006-031A",
    "EPOCH": "2025-05-04T04:12:26.745120",
    "MEAN_MOTION": 14.64265919,
    "ECCENTRICITY": 0.0013203,
    "INCLINATION": 97.8397,
    "RA_OF_ASC_NODE": 323.3947,
    "ARG_OF_PERICENTER": 293.5188,
    "MEAN_ANOMALY": 204.1381,
    "EPHEMERIS_TYPE": 0,
    "CLASSIFICATION_TYPE": "U",
    "NORAD_CAT_ID": 29268,
    "ELEMENT_SET_NO": 999,
    "REV_AT_EPOCH": 171,
    "BSTAR": 0.0001412,
    "MEAN_MOTION_DOT": 7e-06,
    "MEAN_MOTION_DDOT": 0
  },
  {
    "OBJECT_NAME": "LAPAN-TUBSAT",
    "OBJECT_ID": "2007-001A",
    "EPOCH": "2025-05-04T05:17:58.746912",
    "MEAN_MOTION": 14.852797,
    "ECCENTRICITY": 0.0013773,
    "INCLINATION": 98.1081,
    "RA_OF_ASC_NODE": 110.0833,
    "ARG_OF_PERICENTER": 78.4061,
    "MEAN_ANOMALY": 281.8698,
    "EPHEMERIS_TYPE": 0,
    "CLASSIFICATION_TYPE": "U",
    "NORAD_CAT_ID": 29709,
    "ELEMENT_SET_NO": 999,
    "REV_AT_EPOCH": 99044,
    "BSTAR": 0.0001439,
    "MEAN_MOTION_DOT": 1.18e-05,
    "MEAN_MOTION_DDOT": 0
  },
  {
    "OBJECT_NAME": "HAIYANG-1B",
    "OBJECT_ID": "2007-010A",
    "EPOCH": "2025-05-03T21:09:40.328064",
    "MEAN_MOTION": 14.30881208,
    "ECCENTRICITY": 0.0013084,
    "INCLINATION": 98.3136,
    "RA_OF_ASC_NODE": 117.5978,
    "ARG_OF_PERICENTER": 340.4931,
    "MEAN_ANOMALY": 19.5751,
    "EPHEMERIS_TYPE": 0,
    "CLASSIFICATION_TYPE": "U",
    "NORAD_CAT_ID": 31113,
    "ELEMENT_SET_NO": 999,
    "REV_AT_EPOCH": 94209,
    "BSTAR": 9.2722e-05,
    "MEAN_MOTION_DOT": 2.02e-06,
    "MEAN_MOTION_DDOT": 0
  },
  {
    "OBJECT_NAME": "COSMO-SKYMED 1",
    "OBJECT_ID": "2007-023A",
    "EPOCH": "2025-05-04T04:31:16.804416",
    "MEAN_MOTION": 14.86161364,
    "ECCENTRICITY": 1.36e-05,
    "INCLINATION": 97.8877,
    "RA_OF_ASC_NODE": 308.7929,
    "ARG_OF_PERICENTER": 51.7875,
    "MEAN_ANOMALY": 308.3352,
    "EPHEMERIS_TYPE": 0,
    "CLASSIFICATION_TYPE": "U",
    "NORAD_CAT_ID": 31598,
    "ELEMENT_SET_NO": 999,
    "REV_AT_EPOCH": 96874,
    "BSTAR": 0.00012873,
    "MEAN_MOTION_DOT": 1.075e-05,
    "MEAN_MOTION_DDOT": 0
  },
  {
    "OBJECT_NAME": "TERRASAR-X",
    "OBJECT_ID": "2007-026A",
    "EPOCH": "2025-05-03T11:47:07.142496",
    "MEAN_MOTION": 15.19148258,
    "ECCENTRICITY": 0.0001883,
    "INCLINATION": 97.4458,
    "RA_OF_ASC_NODE": 132.0506,
    "ARG_OF_PERICENTER": 94.0312,
    "MEAN_ANOMALY": 266.1138,
    "EPHEMERIS_TYPE": 0,
    "CLASSIFICATION_TYPE": "U",
    "NORAD_CAT_ID": 31698,
    "ELEMENT_SET_NO": 999,
    "REV_AT_EPOCH": 99102,
    "BSTAR": 0.00015615,
    "MEAN_MOTION_DOT": 3.213e-05,
    "MEAN_MOTION_DDOT": 0
  },
  {
    "OBJECT_NAME": "WORLDVIEW-1 (WV-1)",
    "OBJECT_ID": "2007-041A",
    "EPOCH": "2025-05-03T20:55:03.272160",
    "MEAN_MOTION": 15.24614011,
    "ECCENTRICITY": 0.0004151,
    "INCLINATION": 97.3881,
    "RA_OF_ASC_NODE": 244.6277,
    "ARG_OF_PERICENTER": 217.8064,
    "MEAN_ANOMALY": 142.2883,
    "EPHEMERIS_TYPE": 0,
    "CLASSIFICATION_TYPE": "U",
    "NORAD_CAT_ID": 32060,
    "ELEMENT_SET_NO": 999,
    "REV_AT_EPOCH": 98057,
    "BSTAR": 0.00047072,
    "MEAN_MOTION_DOT": 0.00011551,
    "MEAN_MOTION_DDOT": 0
  },
  {
    "OBJECT_NAME": "YAOGAN-3",
    "OBJECT_ID": "2007-055A",
    "EPOCH": "2025-05-04T04:54:47.665440",
    "MEAN_MOTION": 14.88610397,
    "ECCENTRICITY": 0.0001448,
    "INCLINATION": 97.8558,
    "RA_OF_ASC_NODE": 152.7227,
    "ARG_OF_PERICENTER": 84.5348,
    "MEAN_ANOMALY": 275.6034,
    "EPHEMERIS_TYPE": 0,
    "CLASSIFICATION_TYPE": "U",
    "NORAD_CAT_ID": 32289,
    "ELEMENT_SET_NO": 999,
    "REV_AT_EPOCH": 94503,
    "BSTAR": 0.00037315,
    "MEAN_MOTION_DOT": 3.422e-05,
    "MEAN_MOTION_DDOT": 0
  },
  {
    "OBJECT_NAME": "COSMO-SKYMED 2",
    "OBJECT_ID": "2007-059A",
    "EPOCH": "2025-05-04T04:22:32.484288",
    "MEAN_MOTION": 14.82144853,
    "ECCENTRICITY": 0.000135,
    "INCLINATION": 97.8876,
    "RA_OF_ASC_NODE": 308.7202,
    "ARG_OF_PERICENTER": 87.5272,
    "MEAN_ANOMALY": 272.6095,
    "EPHEMERIS_TYPE": 0,
    "CLASSIFICATION_TYPE": "U",
    "NORAD_CAT_ID": 32376,
    "ELEMENT_SET_NO": 999,
    "REV_AT_EPOCH": 94149,
    "BSTAR": 0.00012116,
    "MEAN_MOTION_DOT": 9.12e-06,
    "MEAN_MOTION_DDOT": 0
  },
  {
    "OBJECT_NAME": "RADARSAT-2",
    "OBJECT_ID": "2007-061A",
    "EPOCH": "2025-05-04T04:45:12.468672",
    "MEAN_MOTION": 14.29983902,
    "ECCENTRICITY": 0.000126,
    "INCLINATION": 98.5794,
    "RA_OF_ASC_NODE": 131.9642,
    "ARG_OF_PERICENTER": 89.755,
    "MEAN_ANOMALY": 270.3777,
    "EPHEMERIS_TYPE": 0,
    "CLASSIFICATION_TYPE": "U",
    "NORAD_CAT_ID": 32382,
    "ELEMENT_SET_NO": 999,
    "REV_AT_EPOCH": 90761,
    "BSTAR": 7.2138e-05,
    "MEAN_MOTION_DOT": 1.42e-06,
    "MEAN_MOTION_DDOT": 0
  },
  {
    "OBJECT_NAME": "CARTOSAT-2A",
    "OBJECT_ID": "2008-021A",
    "EPOCH": "2025-05-04T04:30:45.749664",
    "MEAN_MOTION": 14.78804477,
    "ECCENTRICITY": 0.0010871,
    "INCLINATION": 97.818,
    "RA_OF_ASC_NODE": 180.5946,
    "ARG_OF_PERICENTER": 8.5687,
    "MEAN_ANOMALY": 351.5708,
    "EPHEMERIS_TYPE": 0,
    "CLASSIFICATION_TYPE": "U",
    "NORAD_CAT_ID": 32783,
    "ELEMENT_SET_NO": 999,
    "REV_AT_EPOCH": 91844,
    "BSTAR": 0.00019706,
    "MEAN_MOTION_DOT": 1.4e-05,
    "MEAN_MOTION_DDOT": 0
  },
  {
    "OBJECT_NAME": "HUANJING 1A (HJ-1A)",
    "OBJECT_ID": "2008-041A",
    "EPOCH": "2025-05-04T05:32:26.596032",
    "MEAN_MOTION": 14.8257749,
    "ECCENTRICITY": 0.0020607,
    "INCLINATION": 97.6407,
    "RA_OF_ASC_NODE": 122.1389,
    "ARG_OF_PERICENTER": 44.8354,
    "MEAN_ANOMALY": 315.4521,
    "EPHEMERIS_TYPE": 0,
    "CLASSIFICATION_TYPE": "U",
    "NORAD_CAT_ID": 33320,
    "ELEMENT_SET_NO": 999,
    "REV_AT_EPOCH": 89788,
    "BSTAR": 0.00032771,
    "MEAN_MOTION_DOT": 2.595e-05,
    "MEAN_MOTION_DDOT": 0
  },
  {
    "OBJECT_NAME": "HUANJING 1B (HJ-1B)",
    "OBJECT_ID": "2008-041B",
    "EPOCH": "2025-05-04T05:59:58.138944",
    "MEAN_MOTION": 14.8215555,
    "ECCENTRICITY": 0.0038851,
    "INCLINATION": 97.6297,
    "RA_OF_ASC_NODE": 126.3582,
    "ARG_OF_PERICENTER": 85.4298,
    "MEAN_ANOMALY": 275.1352,
    "EPHEMERIS_TYPE": 0,
    "CLASSIFICATION_TYPE": "U",
    "NORAD_CAT_ID": 33321,
    "ELEMENT_SET_NO": 999,
    "REV_AT_EPOCH": 89790,
    "BSTAR": 0.00024296,
    "MEAN_MOTION_DOT": 1.909e-05,
    "MEAN_MOTION_DDOT": 0
  },
  {
    "OBJECT_NAME": "GEOEYE 1",
    "OBJECT_ID": "2008-042A",
    "EPOCH": "2025-05-03T21:19:22.808352",
    "MEAN_MOTION": 14.64626325,
    "ECCENTRICITY": 0.0002919,
    "INCLINATION": 98.1227,
    "RA_OF_ASC_NODE": 198.0234,
    "ARG_OF_PERICENTER": 260.6652,
    "MEAN_ANOMALY": 99.4221,
    "EPHEMERIS_TYPE": 0,
    "CLASSIFICATION_TYPE": "U",
    "NORAD_CAT_ID": 33331,
    "ELEMENT_SET_NO": 999,
    "REV_AT_EPOCH": 89023,
    "BSTAR": 0.00019624,
    "MEAN_MOTION_DOT": 9.95e-06,
    "MEAN_MOTION_DDOT": 0
  },
  {
    "OBJECT_NAME": "THEOS",
    "OBJECT_ID": "2008-049A",
    "EPOCH": "2025-05-04T04:10:33.077280",
    "MEAN_MOTION": 14.20100044,
    "ECCENTRICITY": 0.0001159,
    "INCLINATION": 98.6115,
    "RA_OF_ASC_NODE": 188.4381,
    "ARG_OF_PERICENTER": 87.0566,
    "MEAN_ANOMALY": 273.0743,
    "EPHEMERIS_TYPE": 0,
    "CLASSIFICATION_TYPE": "U",
    "NORAD_CAT_ID": 33396,
    "ELEMENT_SET_NO": 999,
    "REV_AT_EPOCH": 85993,
    "BSTAR": 7.7801e-05,
    "MEAN_MOTION_DOT": 1.23e-06,
    "MEAN_MOTION_DDOT": 0
  }
]